CCSDS_OMM_VERS = 2.0
CREATION_DATE  = 
ORIGINATOR     = 

OBJECT_NAME    = STARLINK-37079
OBJECT_ID      = 2026-050V
CENTER_NAME    = EARTH
REF_FRAME      = TEME
TIME_SYSTEM    = UTC
MEAN_ELEMENT_THEORY = SGP/SGP4

EPOCH          = 2026-03-24T22:00:00.999936
MEAN_MOTION    = 15.80877050
ECCENTRICITY   = .00010013
INCLINATION    = 53.1594
RA_OF_ASC_NODE = 205.3628
ARG_OF_PERICENTER = 53.3910
MEAN_ANOMALY   = 341.5010

EPHEMERIS_TYPE = 0
CLASSIFICATION_TYPE = U
NORAD_CAT_ID   = 68186
ELEMENT_SET_NO = 999
REV_AT_EPOCH   = 289
BSTAR          = .64069327E-4
MEAN_MOTION_DOT = .11966E-3
MEAN_MOTION_DDOT = 0

CCSDS_OMM_VERS = 2.0
CREATION_DATE  = 
ORIGINATOR     = 

OBJECT_NAME    = STARLINK-37006
OBJECT_ID      = 2026-050W
CENTER_NAME    = EARTH
REF_FRAME      = TEME
TIME_SYSTEM    = UTC
MEAN_ELEMENT_THEORY = SGP/SGP4

EPOCH          = 2026-03-24T22:00:00.999936
MEAN_MOTION    = 15.80868190
ECCENTRICITY   = .00010761
INCLINATION    = 53.1593
RA_OF_ASC_NODE = 205.3543
ARG_OF_PERICENTER = 73.7551
MEAN_ANOMALY   = 325.3930

EPHEMERIS_TYPE = 0
CLASSIFICATION_TYPE = U
NORAD_CAT_ID   = 68187
ELEMENT_SET_NO = 999
REV_AT_EPOCH   = 289
BSTAR          = .14970943E-3
MEAN_MOTION_DOT = .28941E-3
MEAN_MOTION_DDOT = 0

CCSDS_OMM_VERS = 2.0
CREATION_DATE  = 
ORIGINATOR     = 

OBJECT_NAME    = STARLINK-36340
OBJECT_ID      = 2026-050X
CENTER_NAME    = EARTH
REF_FRAME      = TEME
TIME_SYSTEM    = UTC
MEAN_ELEMENT_THEORY = SGP/SGP4

EPOCH          = 2026-03-24T22:00:00.999936
MEAN_MOTION    = 15.80932304
ECCENTRICITY   = .00011572
INCLINATION    = 53.1591
RA_OF_ASC_NODE = 205.3449
ARG_OF_PERICENTER = 78.1246
MEAN_ANOMALY   = 325.2907

EPHEMERIS_TYPE = 0
CLASSIFICATION_TYPE = U
NORAD_CAT_ID   = 68188
ELEMENT_SET_NO = 999
REV_AT_EPOCH   = 272
BSTAR          = -.44354839E-3
MEAN_MOTION_DOT = -.87598E-3
MEAN_MOTION_DDOT = 0

CCSDS_OMM_VERS = 2.0
CREATION_DATE  = 
ORIGINATOR     = 

OBJECT_NAME    = STARLINK-36305
OBJECT_ID      = 2026-050Y
CENTER_NAME    = EARTH
REF_FRAME      = TEME
TIME_SYSTEM    = UTC
MEAN_ELEMENT_THEORY = SGP/SGP4

EPOCH          = 2026-03-24T22:00:00.999936
MEAN_MOTION    = 15.80844962
ECCENTRICITY   = .00012293
INCLINATION    = 53.1592
RA_OF_ASC_NODE = 205.3367
ARG_OF_PERICENTER = 93.4618
MEAN_ANOMALY   = 314.2478

EPHEMERIS_TYPE = 0
CLASSIFICATION_TYPE = U
NORAD_CAT_ID   = 68189
ELEMENT_SET_NO = 999
REV_AT_EPOCH   = 278
BSTAR          = .31164089E-3
MEAN_MOTION_DOT = .61166E-3
MEAN_MOTION_DDOT = 0

CCSDS_OMM_VERS = 2.0
CREATION_DATE  = 
ORIGINATOR     = 

OBJECT_NAME    = STARLINK-37071
OBJECT_ID      = 2026-050Z
CENTER_NAME    = EARTH
REF_FRAME      = TEME
TIME_SYSTEM    = UTC
MEAN_ELEMENT_THEORY = SGP/SGP4

EPOCH          = 2026-03-24T22:00:00.999936
MEAN_MOTION    = 15.80925451
ECCENTRICITY   = .00010171
INCLINATION    = 53.1590
RA_OF_ASC_NODE = 205.3188
ARG_OF_PERICENTER = 88.9790
MEAN_ANOMALY   = 327.2338

EPHEMERIS_TYPE = 0
CLASSIFICATION_TYPE = U
NORAD_CAT_ID   = 68190
ELEMENT_SET_NO = 999
REV_AT_EPOCH   = 289
BSTAR          = -.30132581E-3
MEAN_MOTION_DOT = -.59903E-3
MEAN_MOTION_DDOT = 0

CCSDS_OMM_VERS = 2.0
CREATION_DATE  = 
ORIGINATOR     = 

OBJECT_NAME    = STARLINK-37091
OBJECT_ID      = 2026-050AA
CENTER_NAME    = EARTH
REF_FRAME      = TEME
TIME_SYSTEM    = UTC
MEAN_ELEMENT_THEORY = SGP/SGP4

EPOCH          = 2026-03-24T22:00:00.999936
MEAN_MOTION    = 15.80908375
ECCENTRICITY   = .00012753
INCLINATION    = 53.1588
RA_OF_ASC_NODE = 205.3098
ARG_OF_PERICENTER = 65.3821
MEAN_ANOMALY   = 355.1152

EPHEMERIS_TYPE = 0
CLASSIFICATION_TYPE = U
NORAD_CAT_ID   = 68191
ELEMENT_SET_NO = 999
REV_AT_EPOCH   = 289
BSTAR          = -.16474545E-3
MEAN_MOTION_DOT = -.33144E-3
MEAN_MOTION_DDOT = 0

CCSDS_OMM_VERS = 2.0
CREATION_DATE  = 
ORIGINATOR     = 

OBJECT_NAME    = STARLINK-37098
OBJECT_ID      = 2026-050AB
CENTER_NAME    = EARTH
REF_FRAME      = TEME
TIME_SYSTEM    = UTC
MEAN_ELEMENT_THEORY = SGP/SGP4

EPOCH          = 2026-03-24T22:00:00.999936
MEAN_MOTION    = 15.80896437
ECCENTRICITY   = .00009847
INCLINATION    = 53.1591
RA_OF_ASC_NODE = 205.3010
ARG_OF_PERICENTER = 79.5546
MEAN_ANOMALY   = 345.2258

EPHEMERIS_TYPE = 0
CLASSIFICATION_TYPE = U
NORAD_CAT_ID   = 68192
ELEMENT_SET_NO = 999
REV_AT_EPOCH   = 289
BSTAR          = -.15323098E-3
MEAN_MOTION_DOT = -.30866E-3
MEAN_MOTION_DDOT = 0

CCSDS_OMM_VERS = 2.0
CREATION_DATE  = 
ORIGINATOR     = 

OBJECT_NAME    = STARLINK-37090
OBJECT_ID      = 2026-050AC
CENTER_NAME    = EARTH
REF_FRAME      = TEME
TIME_SYSTEM    = UTC
MEAN_ELEMENT_THEORY = SGP/SGP4

EPOCH          = 2026-03-24T22:00:00.999936
MEAN_MOTION    = 15.80894388
ECCENTRICITY   = .0001088
INCLINATION    = 53.1594
RA_OF_ASC_NODE = 205.2828
ARG_OF_PERICENTER = 95.9149
MEAN_ANOMALY   = 337.4101

EPHEMERIS_TYPE = 0
CLASSIFICATION_TYPE = U
NORAD_CAT_ID   = 68193
ELEMENT_SET_NO = 999
REV_AT_EPOCH   = 289
BSTAR          = -.12726846E-3
MEAN_MOTION_DOT = -.25767E-3
MEAN_MOTION_DDOT = 0

CCSDS_OMM_VERS = 2.0
CREATION_DATE  = 
ORIGINATOR     = 

OBJECT_NAME    = STARLINK-37093
OBJECT_ID      = 2026-050AD
CENTER_NAME    = EARTH
REF_FRAME      = TEME
TIME_SYSTEM    = UTC
MEAN_ELEMENT_THEORY = SGP/SGP4

EPOCH          = 2026-03-24T22:00:00.999936
MEAN_MOTION    = 15.80878033
ECCENTRICITY   = .00007622
INCLINATION    = 53.1594
RA_OF_ASC_NODE = 205.3271
ARG_OF_PERICENTER = 45.8301
MEAN_ANOMALY   = 6.1400

EPHEMERIS_TYPE = 0
CLASSIFICATION_TYPE = U
NORAD_CAT_ID   = 68194
ELEMENT_SET_NO = 999
REV_AT_EPOCH   = 289
BSTAR          = .28990148E-4
MEAN_MOTION_DOT = .5028E-4
MEAN_MOTION_DDOT = 0

CCSDS_OMM_VERS = 2.0
CREATION_DATE  = 
ORIGINATOR     = 

OBJECT_NAME    = STARLINK-37058
OBJECT_ID      = 2026-050AE
CENTER_NAME    = EARTH
REF_FRAME      = TEME
TIME_SYSTEM    = UTC
MEAN_ELEMENT_THEORY = SGP/SGP4

EPOCH          = 2026-03-24T22:00:00.999936
MEAN_MOTION    = 15.80892862
ECCENTRICITY   = .00006419
INCLINATION    = 53.1591
RA_OF_ASC_NODE = 205.2918
ARG_OF_PERICENTER = 58.5059
MEAN_ANOMALY   = 10.5481

EPHEMERIS_TYPE = 0
CLASSIFICATION_TYPE = U
NORAD_CAT_ID   = 68195
ELEMENT_SET_NO = 999
REV_AT_EPOCH   = 289
BSTAR          = -.1258958E-3
MEAN_MOTION_DOT = -.25494E-3
MEAN_MOTION_DDOT = 0

CCSDS_OMM_VERS = 2.0
CREATION_DATE  = 
ORIGINATOR     = 

OBJECT_NAME    = YAOGAN-50 02
OBJECT_ID      = 2026-051A
CENTER_NAME    = EARTH
REF_FRAME      = TEME
TIME_SYSTEM    = UTC
MEAN_ELEMENT_THEORY = SGP/SGP4

EPOCH          = 2026-03-23T03:42:07.888608
MEAN_MOTION    = 13.86640908
ECCENTRICITY   = .0072308
INCLINATION    = 142.0892
RA_OF_ASC_NODE = 272.3752
ARG_OF_PERICENTER = 159.1554
MEAN_ANOMALY   = 201.2127

EPHEMERIS_TYPE = 0
CLASSIFICATION_TYPE = U
NORAD_CAT_ID   = 68196
ELEMENT_SET_NO = 999
REV_AT_EPOCH   = 107
BSTAR          = .60947935E-4
MEAN_MOTION_DOT = .264E-5
MEAN_MOTION_DDOT = 0

CCSDS_OMM_VERS = 2.0
CREATION_DATE  = 
ORIGINATOR     = 

OBJECT_NAME    = CZ-6A R/B
OBJECT_ID      = 2026-051B
CENTER_NAME    = EARTH
REF_FRAME      = TEME
TIME_SYSTEM    = UTC
MEAN_ELEMENT_THEORY = SGP/SGP4

EPOCH          = 2026-03-24T19:12:16.004736
MEAN_MOTION    = 14.56365288
ECCENTRICITY   = .0186142
INCLINATION    = 142.0322
RA_OF_ASC_NODE = 284.5097
ARG_OF_PERICENTER = 159.2684
MEAN_ANOMALY   = 201.5706

EPHEMERIS_TYPE = 0
CLASSIFICATION_TYPE = U
NORAD_CAT_ID   = 68197
ELEMENT_SET_NO = 999
REV_AT_EPOCH   = 136
BSTAR          = .13439455E-3
MEAN_MOTION_DOT = .1065E-4
MEAN_MOTION_DDOT = 0

